ONEWEB-0235             
1 48771U 21045E   25321.46074791  .00000083  00000+0  18564-3 0  9997
2 48771  87.8961 301.4324 0002358  90.9844 269.1557 13.15546426216547
ONEWEB-0242             
1 48772U 21045F   25321.37836220 -.00000004  00000+0 -45062-4 0  9990
2 48772  87.8972 301.4406 0001953  91.7941 268.3413 13.15547913216575
ONEWEB-0241             
1 48773U 21045G   25321.44173382 -.00000182  00000+0 -51861-3 0  9992
2 48773  87.8964 301.4678 0002312  83.0845 277.0548 13.15551498216495
ONEWEB-0243             
1 48774U 21045H   25321.47342444  .00000160  00000+0  38971-3 0  9994
2 48774  87.8966 301.4699 0002199  94.8406 265.2975 13.15547291216520
ONEWEB-0222             
1 48775U 21045J   25321.38069766 -.00009802  00000+0 -26084-1 0  9992
2 48775  87.8971 301.4411 0001925  95.1353 264.9997 13.15587175216558
ONEWEB-0244             
1 48776U 21045K   25321.48294292  .00000235  00000+0  58915-3 0  9997
2 48776  87.8974 301.4061 0002006  89.0308 271.1052 13.15548096217132
ONEWEB-0247             
1 48777U 21045L   25321.47976501  .00000212  00000+0  52990-3 0  9999
2 48777  87.8957 301.4675 0002715  98.7533 261.3905 13.15548245216570
ONEWEB-0245             
1 48778U 21045M   25321.47501082  .00000243  00000+0  61155-3 0  9995
2 48778  87.8960 301.4327 0002025  82.2904 277.8456 13.15547281216542
